XCUBE-1                 
1 62400U 24247Z   26068.48297321  .00009773  00000+0  36224-3 0  9994
2 62400  44.9938 117.7807 0005235 331.1499  28.9094 15.27910558 67702
STARLINK-35563          
1 66087U 25236B   26068.48384699  .00028413  00000+0  96792-3 0  9991
2 66087  53.1602 104.7929 0001540  70.0195 290.0972 15.30195000 22850
